STARLINK-1623
1 46129U 20057N   26061.25002314  .00049978  00000+0  85695-3 0  9990
2 46129  53.0514 291.7543 0009079 134.4710 344.0094 15.50684832  5942
STARLINK-1351
1 45697U 20035AS  26060.98908197  .00046597  00000+0  80451-3 0  9997
2 45697  53.0540  58.6571 0002808  72.6335 287.4980 15.50558726318178
STARLINK-1453
1 45670U 20035P   26061.16968842  .00105226  00000+0  17926-2 0  9993
2 45670  53.0494  49.4953 0008212  15.2051 344.9203 15.50543684318200
STARLINK-1448
1 45665U 20035J   26061.11364218  .00098150  00000+0  16749-2 0  9998
2 45665  53.0512  89.1643 0007356  44.8483 315.3118 15.50536462317748
STARLINK-1656
1 46353U 20062AE  26061.19154809  .00102669  00000+0  17621-2 0  9995
2 46353  53.0510  35.5880 0001994 104.1583 255.9647 15.50376587303383
STARLINK-1212
1 45223U 20012AX  26061.18419855  .00098455  00000+0  16925-2 0  9992
2 45223  53.0504  26.1694 0005837  77.7185 282.4476 15.50337282334471
STARLINK-1284
1 45390U 20019AG  26061.01034373  .00088793  00000+0  15353-2 0  9992
2 45390  53.0497 167.8948 0002056 345.2023  14.8924 15.50235292329035
STARLINK-1286
1 45417U 20019BK  26061.00045618  .00043051  00000+0  75292-3 0  9992
2 45417  53.0497 167.6513 0002382  59.4163 300.7080 15.50231395329032
STARLINK-1255
1 45399U 20019AR  26060.50549180  .00094688  00000+0  16383-2 0  9995
2 45399  53.0425 142.0782 0002142 253.7300 106.3473 15.50186420329161
STARLINK-1805
1 46705U 20073AM  26060.90276354  .00094471  00000+0  16416-2 0  9998
2 46705  53.0526 281.0011 0003857 169.7528 190.3559 15.50062679295895
STARLINK-1777
1 47122U 20088A   26061.11465472  .00085326  00000+0  14873-2 0  9997
2 47122  53.0549 320.0886 0001293 164.4635 195.6413 15.50026762290919
STARLINK-1641
1 46174U 20057BK  26061.10767906  .00045069  00000+0  80211-3 0  9995
2 46174  53.0518 321.3693 0000939 107.9271 252.1840 15.49715642305331
STARLINK-1676
1 46556U 20070AA  26061.16668981  .00157811  00000+0  27560-2 0  9999
2 46556  53.0458 181.1972 0001838 158.2356 278.9416 15.49640311  5930
STARLINK-1598
1 46160U 20057AV  26061.11670640  .00090698  00000+0  16029-2 0  9992
2 46160  53.0534 319.9609 0003628 180.0334 180.0674 15.49603519306608
STARLINK-1307
1 45397U 20019AP  26061.00872703  .00027927  00000+0  50411-3 0  9992
2 45397  53.0556 167.5851 0001274  37.7967 322.3130 15.49547180328865
STARLINK-1308
1 45419U 20019BM  26061.07353961  .00033632  00000+0  60534-3 0  9991
2 45419  53.0540 188.6438 0000582 356.7274   3.3730 15.49532599328493
STARLINK-1456
1 45673U 20035S   26061.07336897  .00028551  00000+0  51578-3 0  9992
2 45673  53.0487  82.8614 0001559  95.6515 264.4670 15.49512943317849
STARLINK-1828
1 46725U 20073BH  26061.00406843  .00055822  00000+0  99720-3 0  9997
2 46725  53.0531 273.4077 0008426 147.0022 213.1513 15.49482359296013
STARLINK-1209
1 45206U 20012AE  26061.13218614  .00089385  00000+0  15880-2 0  9999
2 45206  53.0484   9.7247 0005902 260.9081  99.1259 15.49449559333744
STARLINK-1042
1 44747U 19074AL  26060.91383182  .00025282  00000+0  46032-3 0  9992
2 44747  53.0440 132.0890 0001987 110.3817 249.7404 15.49357562348869
STARLINK-2001
1 47596U 21009BA  26061.13204149  .00096688  00000+0  17317-2 0  9999
2 47596  53.0495  57.8400 0004513  69.9230 290.2263 15.49188774279629
STARLINK-1373
1 45544U 20025P   26060.89488316  .00090949  00000+0  16323-2 0  9999
2 45544  53.0510 126.3720 0005081 330.5573  29.5148 15.49156768324133
STARLINK-1454
1 45671U 20035Q   26060.36869871  .00101162  00000+0  18199-2 0  9995
2 45671  53.0514  92.7865 0008444  25.7859 334.3568 15.49015828317620
STARLINK-1493
1 45759U 20038AF  26061.25002314  .00044326  00000+0  80935-3 0  9991
2 45759  53.0530 240.1708 0001376  83.8522  51.6935 15.48992841  5820
STARLINK-1222
1 45228U 20012BC  26061.13760640  .00029239  00000+0  53759-3 0  9994
2 45228  53.0576  19.0040 0003962  62.6282 297.5128 15.48992758334450
